NUSAT-1 (FRESCO)        
1 41557U 16033B   21319.15593422  .00003355  00000-0  11622-3 0  9993
2 41557  97.3929  52.3300 0013945  63.5707 358.9836 15.30467343304573
BEESAT-4                
1 41619U 16040W   21318.88800761  .00003062  00000-0  11958-3 0  9993
2 41619  97.2513  10.6912 0011170 151.4373 208.7480 15.26582027287951
CAS-2T & KS-1Q          
1 41847U 16066G   21318.88622810  .00000197  00000-0  38894-4 0  9996
2 41847  98.5831  18.5030 0365825 131.1459 232.1913 14.38283548263503
NAYIF-1 (EO-88)         
1 42017U 17008BX  21319.11495559  .00003341  00000-0  11985-3 0  9993
2 42017  97.3004  23.9779 0004266 301.3620  58.7202 15.29386404264276
ZHUHAI-1 02 (CAS-4B)    
1 42759U 17034B   21319.20790740  .00000859  00000-0  64437-4 0  9997
2 42759  43.0175  72.1171 0007934  17.2993  55.7665 15.10538425243942
ZHUHAI-1 01 (CAS-4A)    
1 42761U 17034D   21319.18958951  .00000949  00000-0  69631-4 0  9998
2 42761  43.0175  71.1599 0008352  19.0079  50.9811 15.10625905243948
MAX VALIER SAT          
1 42778U 17036P   21318.93583555  .00001767  00000-0  75028-4 0  9990
2 42778  97.2377   2.5157 0011809  14.1135 346.0431 15.24289675244201
RADFXSAT (FOX-1B)       
1 43017U 17073E   21318.52237650  .00000857  00000-0  70570-4 0  9991
2 43017  97.6925 216.4646 0253771 170.2321 190.3964 14.79943953215313
FOX-1D (AO-92)          
1 43137U 18004AC  21318.92910400  .00002204  00000-0  88320-4 0  9994
2 43137  97.3942  31.3733 0009643  48.3999 311.8064 15.26058509213604
DIWATA-2B               
1 43678U 18084H   21319.10395856 -.00000023  00000-0  34700-5 0  9997
2 43678  97.9436  85.3421 0008370 274.6869  85.3421 14.91829229165890
ES'HAIL 2               
1 43700U 18090A   21318.86182590  .00000143  00000-0  00000-0 0  9994
2 43700   0.0026 305.7053 0002459 309.2447 135.2966  1.00274047 10879
FOX-1CLIFF (AO-95)      
1 43770U 18099N   21319.13708636  .00001018  00000-0  96823-4 0  9990
2 43770  97.6500  25.8845 0012888 273.6097  86.3650 14.95540924160977
ITASAT 1                
1 43786U 18099AE  21318.89412186  .00000264  00000-0  28768-4 0  9996
2 43786  97.6525  26.4299 0013551 267.4083  92.5587 14.95807989160970
JY1SAT (JO-97)          
1 43803U 18099AX  21318.63067237  .00000283  00000-0  30240-4 0  9990
2 43803  97.6487  25.9112 0013542 268.0099  91.9572 14.96100242160942
UWE-4                   
1 43880U 18111E   21318.71366068  .00000269  00000-0  28275-4 0  9992
2 43880  97.6773 223.8010 0011510 328.0344  32.0178 14.97122206157561
NEXUS (FO-99)           
1 43937U 19003F   21318.66734118  .00002956  00000-0  11453-3 0  9999
2 43937  97.1602 355.7663 0022097 195.0615 164.9969 15.26694170157171
PSAT2 (NO-104)          
1 44354U 19036R   21318.90740856  .00025110  00000-0  30626-3 0  9992
2 44354  28.5246 199.9390 0301246 113.7404 249.5088 15.20030884131838
BRICSAT2 (NO-103)       
1 44355U 19036S   21318.82784048  .00058067 -57441-5  48598-3 0  9996
2 44355  28.5248 125.5012 0208073 235.0865 123.0022 15.44963990132575
JAISAT-1                
1 44419U 19038F   21318.86188063  .00002166  00000-0  12095-3 0  9993
2 44419  97.6084 283.2206 0021541 149.2218 211.0282 15.14431889130555
DUCHIFAT-3              
1 44854U 19089C   21319.00616044  .00001137  00000-0  96494-4 0  9997
2 44854  36.9657 290.1371 0008964 281.7424  78.2323 14.99792639105719
CAS-6 (TO-108)          
1 44881U 19093C   21319.21954771  .00000145  00000-0  25279-4 0  9998
2 44881  97.9139  36.3228 0015505 157.7301 202.4593 14.81509791103058
RS-44 & BREEZE-KM R/B   
1 44909U 19096E   21318.89412943  .00000014  00000-0  51956-5 0  9992
2 44909  82.5239  12.8501 0218492 101.3740 261.1992 12.79711230 88061
ORBITAL FACTORY 2 (OF-2)
1 45113U 19071C   21318.91271450  .00004266  00000-0  12439-3 0  9996
2 45113  51.6428  27.2247 0011457 114.4677 245.7503 15.37531110100301
HUSKYSAT-1 (HO-107)     
1 45119U 19071J   21318.60182625  .00005299  00000-0  15249-3 0  9992
2 45119  51.6426  28.1386 0011000 110.1706 250.0462 15.37413777100254
BY70-2                  
1 45857U 20042B   21319.21812711  .00001932  00000-0  27749-3 0  9993
2 45857  97.9743  33.3694 0012266  91.1509 269.1086 14.77564692 73801
SALSAT                  
1 46495U 20068K   21318.93333650 -.00000049  00000-0  10023-5 0  9996
2 46495  97.7047 255.6322 0015200 286.8087  73.1463 15.03659524 61940
BY70-3                  
1 46839U 20079N   21319.16614208  .00005354  00000-0  15877-3 0  9990
2 46839  97.2266  30.0403 0007873  37.6367  46.8935 15.35217224 57314
RADFXSAT-2 (AO-109)     
1 47311U 21002C   21318.93336830  .00002163  00000-0  10316-3 0  9997
2 47311  60.6854  87.6240 0037448 124.3046 236.1595 15.22392872 45786
UVSQ-SAT                
1 47438U 21006AB  21318.60836377  .00001467  00000-0  85190-4 0  9995
2 47438  97.4698  17.0331 0011214 303.3423  56.6734 15.13626476 44766
DIY-1 (ARDUIQUBE)       
1 47963U 21022AH  21318.68713711  .00003491  00000-0  22797-3 0  9992
2 47963  97.5448 218.3289 0019633 146.5485 213.6988 15.08336558 34532
